MAKERSAT 0              
1 43016U 17073D   26171.18420895  .00014694  00000+0  39936-3 0  9992
2 43016  97.4616  53.7262 0104941 262.1211  96.8109 15.32181843466924
SIRION PATHFINDER-2     
1 43759U 18099B   26170.69233594  .00004059  00000+0  22350-3 0  9994
2 43759  97.4247 219.6903 0007157 293.9955  66.0528 15.14565833413001
CORVUS BC4              
1 43767U 18099K   26170.90077079  .00002997  00000+0  17563-3 0  9990
2 43767  97.4063 213.8018 0008017   4.0881 356.0414 15.12513050412810
M2 PATHFINDER           
1 45727U 20037E   26171.10590717  .00001223  00000+0  91334-4 0  9995
2 45727  97.8143   2.3704 0012535 137.7534 222.4660 15.04683305325930
NETSAT-4                
1 46504U 20068U   26170.97656422  .00015061  00000+0  33294-3 0  9998
2 46504  97.8606 179.4415 0003536 325.1547  34.9468 15.43941889316200
NETSAT-3                
1 46505U 20068V   26170.98497625  .00015734  00000+0  36169-3 0  9999
2 46505  97.8656 177.6634 0003804 350.0729  10.0441 15.42761824316110
NETSAT-1                
1 46506U 20068W   26170.93912466  .00010455  00000+0  31335-3 0  9995
2 46506  97.8748 171.9127 0004707  24.0550 336.0910 15.34696284315726
NETSAT-2                
1 46507U 20068X   26171.01274924  .00019839  00000+0  40674-3 0  9997
2 46507  97.8618 179.3850 0003088  17.4041 342.7313 15.46101808316177
GREENCUBE (IO-117)      
1 53109U 22080E   26171.29702634 -.00000003  00000+0  00000+0 0  9992
2 53109  70.1444 297.1634 0008922 288.8810  71.0882  6.42583223 92268
SITRO-AIS 5 (KATYS)     
1 57176U 23091L   26171.27574080  .00010092  00000+0  35450-3 0  9992
2 57176  97.5056 235.2048 0012711  93.9091 266.3603 15.29516052164819
SITRO-AIS 6 (CHIRKIN)   
1 57192U 23091AC  26171.26182256  .00008563  00000+0  33522-3 0  9997
2 57192  97.5062 234.2934 0013088  97.0771 263.1956 15.25982865164759
SITRO-AIS 8 (ANOKHIN)   
1 57193U 23091AD  26171.28735727  .00011975  00000+0  38665-3 0  9991
2 57193  97.5051 236.8178 0011718  90.4642 269.7942 15.32208364164927
SITRO-AIS 7 (FARTUSHNIY)
1 57194U 23091AE  26171.26560022  .00008326  00000+0  32912-3 0  9999
2 57194  97.5059 234.1206 0012940  97.9916 262.2791 15.25669942164748
SITRO-AIS 10 (BURDAEV)  
1 57199U 23091AK  26171.24080587  .00017014  00000+0  44619-3 0  9996
2 57199  97.5075 241.8562 0007296  71.2449 288.9587 15.38710807165239
SITRO-AIS 9 (SHCHUKIN)  
1 57201U 23091AM  26171.26818352  .00016908  00000+0  45055-3 0  9997
2 57201  97.5073 241.6118 0007563  71.3662 288.8404 15.38216798165227
SITRO-AIS 12 (SMIRENNIY)
1 57204U 23091AQ  26171.25821809  .00016737  00000+0  44185-3 0  9993
2 57204  97.5087 242.0707 0007069  66.2147 293.9839 15.38510082165240
SITRO-AIS 11 (SHEFFER)  
1 57208U 23091AU  26171.27078425  .00017200  00000+0  44775-3 0  9998
2 57208  97.5084 242.3321 0006982  66.2463 293.9514 15.38936733165267
SITRO-AIS 25            
1 59066U 24039R   26171.25710836  .00002405  00000+0  18951-3 0  9990
2 59066  95.3906 237.2023 0143066 317.9214  41.1093 14.93526558125189
SITRO-AIS 26            
1 59067U 24039S   26171.25889926  .00002043  00000+0  16215-3 0  9997
2 59067  95.3909 237.1004 0143508 318.5127  40.5273 14.93321644125173
SITRO-AIS 27            
1 59068U 24039T   26171.29526860  .00001737  00000+0  13711-3 0  9994
2 59068  95.3913 237.3985 0142534 316.9831  42.0320 14.93741790125203
SITRO-AIS 28            
1 59071U 24039U   26171.27264354  .00002057  00000+0  16174-3 0  9995
2 59071  95.3911 237.4305 0142416 316.8945  42.1197 14.93776368125208
GRBBETA                 
1 60237U 24128C   26171.27296576  .00002201  00000+0  15966-3 0  9990
2 60237  61.9881 205.4396 0040261 135.2866 225.1485 15.06653951106731
OOV-CUBE (TUBSAT-30)    
1 60240U 24128F   26170.58394809  .00001296  00000+0  11023-3 0  9998
2 60240  61.9930 217.2156 0044338 134.2886 226.1856 15.02780984106472
ROBUSTA-3A (MEDITERRAN*)
1 60243U 24128J   26171.11144918  .00004283  00000+0  25846-3 0  9992
2 60243  61.9846 197.9022 0041030 128.4989 231.9798 15.11700028106865
LASARSAT                
1 62391U 24247Q   26171.27059198  .00028493  00000+0  56523-3 0  9997
2 62391  44.9733 244.8864 0007836 348.4451  11.6258 15.46534749 83790
CROCUBE                 
1 62394U 24247T   26170.49048578  .00032668  00000+0  60622-3 0  9997
2 62394  44.9701 246.5654 0007740 349.0739  10.9982 15.48397693 83708
FORESAIL-1 PRIME        
1 66778U 25276DS  26170.43439938  .00004058  00000+0  19871-3 0  9990
2 66778  97.4197 243.6644 0003961  98.6161 261.5522 15.18719306 30740
KNACKSAT-2              
1 67683U 98067XZ  26170.59247606  .00040473  00000+0  49084-3 0  9990
2 67683  51.6307 282.3774 0008934 225.7617 134.2643 15.60167582 20658
